172P/Yeung,e,11.2248,30.8797,208.9853,4.221342,0.1136392,0.20459611,309.9936,08/20.0/2024,2000,g 13.0,4.0
# From MPEC 2023-N01
173P/Mueller,e,16.4916,100.3519,29.2138,5.713420,0.0721705,0.26214572,70.5082,08/20.0/2024,2000,g  7.5,4.0
# From MPC 92985
174P/Echeclus,e,4.3424,173.3104,163.4472,10.75724,0.0279353,0.45559293,95.1628,08/20.0/2024,2000,g  9.4,2.0
# From MPC114608
175P/Hergenrother,e,4.9168,109.9727,75.0468,3.679268,0.1396567,0.37840298,256.1233,08/20.0/2024,2000,g 14.0,4.0
# From MPC 89015
176P/LINEAR,e,0.2313,345.6322,34.4524,3.194571,0.1726177,0.19214054,110.2863,08/20.0/2024,2000,g 15.1,2.0
# From MPEC 2020-L06
177P/Barnard,e,31.0304,271.9135,60.6745,24.51683,0.0081191,0.95456285,53.2692,08/20.0/2024,2000,g 15.0,4.0
# From MPEC 2021-F20
178P/Hug-Bell,e,11.0910,102.7918,297.9409,3.632814,0.1423441,0.48247570,212.6682,08/20.0/2024,2000,g 14.6,4.0
# From MPEC 2024-EF7
179P/Jedicke,e,19.8923,115.5131,297.1404,5.935595,0.0681566,0.30571482,55.2937,08/20.0/2024,2000,g  2.5,8.0
# From MPEC 2024-F34
180P/NEAT,e,16.8618,84.5597,94.6340,3.868303,0.1295458,0.35363089,52.4537,08/20.0/2024,2000,g 11.0,4.0
# From MPC 89012
181P/Shoemaker-Levy,e,17.4811,35.4262,336.2945,3.878170,0.1290517,0.70017678,123.1643,08/20.0/2024,2000,g 11.5,4.0
# From MPEC 2014-J10
182P/LONEOS,e,16.2319,72.4500,54.2048,2.949241,0.1945981,0.66368987,161.6151,08/20.0/2024,2000,g 18.0,4.0
# From MPEC 2023-A50
183P/Korlevic-Juric,e,18.7758,3.7726,164.0332,4.695350,0.0968728,0.10286350,250.0296,08/20.0/2024,2000,g 12.5,2.0
# From MPEC 2020-W26
184P/Lovas,e,4.5720,173.2746,186.5631,3.799674,0.1330714,0.55024758,185.5024,08/20.0/2024,2000,g 13.5,4.0
# From MPEC 2024-F91
185P/Petriew,e,14.0139,214.1168,181.9058,3.098931,0.1806701,0.69964081,73.0123,08/20.0/2024,2000,g 15.0,4.0
# From MPEC 2022-X67
186P/Garradd,e,28.6280,326.0515,268.9019,4.852112,0.0922163,0.12420979,190.6451,08/20.0/2024,2000,g  7.5,4.0
# From MPEC 2020-SI8
187P/LINEAR,e,13.6560,109.8431,131.2381,4.557314,0.1013073,0.15464114,232.1218,08/20.0/2024,2000,g  9.0,4.0
# From MPEC 2023-J29
188P/LINEAR-Mueller,e,10.5237,358.9298,26.7758,4.367155,0.1079956,0.41688770,295.0846,08/20.0/2024,2000,g 11.5,4.0
# From MPEC 2022-QD9
189P/NEAT,e,20.1015,281.6726,16.2341,2.942212,0.1952959,0.58948823,141.0254,08/20.0/2024,2000,g 19.0,4.0
# From MPEC 2024-Q20
190P/Mueller,e,2.1747,335.5018,50.5167,4.226655,0.1134250,0.52218758,345.6948,08/20.0/2024,2000,g 13.0,4.0
# From MPEC 2022-X67
191P/McNaught,e,8.8391,98.1863,284.2534,3.639902,0.1419285,0.38552925,177.1983,08/20.0/2024,2000,g 13.0,4.0
# From MPEC 2024-Q20
192P/Shoemaker-Levy,e,24.5890,51.6123,313.0905,6.463977,0.0599728,0.77343701,5.2446,08/20.0/2024,2000,g 15.0,4.0
# From MPEC 2024-JU4
193P/LINEAR-NEAT,e,10.6824,335.1883,8.1349,3.578576,0.1455924,0.39296698,158.9011,08/20.0/2024,2000,g 14.0,4.0
# From MPEC 2024-GJ3
194P/LINEAR,e,11.8054,349.5247,128.5747,4.120663,0.1178294,0.56326458,23.3011,08/20.0/2024,2000,g 16.0,4.0
# From MPEC 2024-GJ3
195P/Hill,e,36.4252,243.1138,250.3267,6.464387,0.0599671,0.31280296,339.1115,08/20.0/2024,2000,g  8.5,4.0
# From MPEC 2024-GJ3
196P/Tichy,e,19.3000,24.1180,12.1040,3.804987,0.1327927,0.42784785,87.7293,08/20.0/2024,2000,g 13.5,4.0
# From MPEC 2023-UR6
197P/LINEAR,e,25.6547,66.2321,189.4884,2.888950,0.2007216,0.62722733,124.5381,08/20.0/2024,2000,g 16.5,2.0
# From NK 1596
198P/ODAS,e,1.3389,358.2005,69.3076,3.593888,0.1446630,0.44479132,299.8655,08/20.0/2024,2000,g  9.0,4.0
# From MPEC 2024-Q20
199P/Shoemaker,e,24.9387,92.3478,191.7701,5.876876,0.0691806,0.50475162,26.1826,08/20.0/2024,2000,g 10.0,4.0
# From MPEC 2022-C56
200P/Larsen,e,12.0964,234.8045,134.3805,4.950994,0.0894675,0.33177331,165.3491,08/20.0/2024,2000,g  9.0,4.0
# From MPC 93588
201P/LONEOS,e,5.7392,41.5372,19.7757,3.354758,0.1604029,0.63758905,189.3592,08/20.0/2024,2000,g 14.0,4.0
# From MPEC 2023-XP6
202P/Scotti,e,2.1416,177.3065,274.4937,4.101282,0.1186655,0.25153201,11.2294,08/20.0/2024,2000,g 13.5,4.0
# From MPEC 2021-S45
203P/Korlevic,e,2.9747,290.2443,154.8638,4.668556,0.0977080,0.31632608,159.0207,08/20.0/2024,2000,g 14.5,2.0
# From MPEC 2024-JU4
204P/LINEAR-NEAT,e,6.5969,108.4793,356.7000,3.583708,0.1452797,0.48819827,93.2629,08/20.0/2024,2000,g 14.0,4.0
# From MPEC 2023_O39
205P/Giacobini,e,15.3034,179.6163,154.1787,3.542742,0.1478070,0.56742259,140.3916,08/20.0/2024,2000,g 13.0,4.0
# From MPC 75725
206P/Barnard-Boattini,e,33.6299,202.3506,189.5614,3.491105,0.1510983,0.55136302,190.9809,08/20.0/2024,2000,g 19.0,4.0
# From MPEC 2024-NE4
207P/NEAT,e,10.2008,198.1548,272.9985,3.884518,0.1287355,0.75845231,25.8986,08/20.0/2024,2000,g 16.0,4.0
# From MPEC 2024-Q20
208P/McMillan,e,4.4123,36.3352,310.6853,4.038123,0.1214604,0.37381808,359.5225,08/20.0/2024,2000,g 12.5,4.0
# From MPEC 2024-P23
209P/LINEAR,e,21.2825,62.7697,152.4936,2.958712,0.1936645,0.67404207,7.0694,08/20.0/2024,2000,g 17.0,2.0
# From MPC105242
210P/Christensen,e,10.2808,93.8241,345.9030,3.161788,0.1753093,0.83404314,279.4093,08/20.0/2024,2000,g 13.5,4.0
# From MPEC 2024-JU4
211P/Hill,e,18.9211,117.1071,4.3242,3.548839,0.1474262,0.34431261,101.0106,08/20.0/2024,2000,g 12.5,4.0
# From MPEC 2024-GJ3
212P/NEAT,e,22.1487,97.9752,14.0275,3.901063,0.1279174,0.58665732,14.9532,08/20.0/2024,2000,g 17.0,2.0
# From MPEC 2022-GA9
213P/Van Ness,e,10.3805,311.2797,5.8504,3.347705,0.1609101,0.40831607,45.3826,08/20.0/2024,2000,g 10.5,4.0
# From MPC 76570
213P-B/Van Ness,e,10.3763,5.7245,311.4149,3.348081,0.1608830,0.40848535,45.2292,08/20.0/2024,2000,g 17.0,4.0
# From MPC 76570
213P-C/Van Ness,e,10.3738,5.7055,311.4173,3.347459,0.1609278,0.40832588,45.5097,08/20.0/2024,2000,g 17.5,4.0
# From MPC 92986
214P/LINEAR,e,15.1875,348.2174,190.1344,3.617358,0.1432573,0.48597432,99.4000,08/20.0/2024,2000,g 13.0,4.0
# From MPEC 2024-F91
215P/NEAT,e,10.5765,56.6736,262.3712,4.334254,0.1092276,0.16522679,189.8376,08/20.0/2024,2000,g 11.0,4.0
# From MPEC 2024-N80
216P/LINEAR,e,9.0624,359.7967,151.7419,3.859163,0.1300063,0.44882317,29.3944,08/20.0/2024,2000,g 13.0,4.0
# From MPEC 2024-LE0
217P/LINEAR,e,12.8643,125.3753,247.0233,3.945868,0.1257449,0.68918864,325.0524,08/20.0/2024,2000,g 12.0,4.0
# From MPEC 2022-K19
218P/LINEAR,e,2.7241,175.2943,60.4611,3.073807,0.1828897,0.62957808,257.4121,08/20.0/2024,2000,g 16.0,4.0
# From MPEC 2024-N80
219P/LINEAR,e,11.5399,230.9534,107.6628,3.646859,0.1415225,0.35423990,26.6129,08/20.0/2024,2000,g 11.0,4.0
# From MPEC 2024-A43
220P/McNaught,e,8.1226,150.1010,180.6066,3.119349,0.1788990,0.50060743,241.3761,08/20.0/2024,2000,g 15.0,4.0
# From MPEC 2022-UY9
221P/LINEAR,e,11.4876,229.5245,39.2834,3.424342,0.1555387,0.50520487,150.7847,08/20.0/2024,2000,g 14.5,4.0
# From MPC 92277
222P/LINEAR,e,5.0960,6.7809,346.2860,2.897859,0.1997966,0.71473300,19.8010,08/20.0/2024,2000,g 20.0,4.0
# From MPEC 2023-A50
223P/Skiff,e,27.0093,346.7303,37.9539,4.158233,0.1162361,0.41646454,235.8085,08/20.0/2024,2000,g 12.0,4.0
# From MPEC 2024-L77
224P/LINEAR-NEAT,e,13.3048,40.0396,16.7736,3.446061,0.1540706,0.40581310,106.2824,08/20.0/2024,2000,g 15.5,4.0
# From MPEC 2024-F91
225P/LINEAR,e,21.3655,14.2034,3.9021,3.647301,0.1414968,0.63837832,53.4861,08/20.0/2024,2000,g 18.0,4.0
# From MPEC 2024-MB8
226P/Pigott-LINEAR-Kowalski,e,44.0455,54.0114,341.0301,3.765844,0.1348685,0.52905470,31.9447,08/20.0/2024,2000,g 12.5,4.0
# From MPEC 2024-O39
227P/Catalina-LINEAR,e,7.5084,36.8095,105.5742,3.436657,0.1547034,0.52755051,25.4856,08/20.0/2024,2000,g 16.5,2.0
# From MPEC 2022-HC2
228P/LINEAR,e,7.9138,30.9690,114.7390,4.163824,0.1160020,0.17698049,188.6044,08/20.0/2024,2000,g 14.1,4.0
# From MPEC 2024-Q20
229P/Gibbs,e,26.0964,157.8834,224.1928,3.923288,0.1268320,0.37795043,334.9242,08/20.0/2024,2000,g 13.0,4.0
# From MPEC 2024-P23
230P/LINEAR,e,15.4699,106.9388,313.5460,3.454458,0.1535091,0.54563418,135.7629,08/20.0/2024,2000,g 13.0,4.0
# From MPEC 2023-SQ0
231P/LINEAR-NEAT,e,12.2725,132.8381,43.9748,4.056424,0.1206394,0.24045055,229.5963,08/20.0/2024,2000,g 14.5,2.0
# From MPC112394
232P/Hill,e,14.6439,56.0261,53.2345,4.471628,0.1042331,0.33579223,204.4158,08/20.0/2024,2000,g 11.5,4.0
# From MPEC 2021-N06
233P/La Sagra,e,11.2888,74.9006,26.9986,3.027005,0.1871476,0.41283625,265.2736,08/20.0/2024,2000,g 15.0,4.0
# From MPEC 2024-DC6
234P/LINEAR,e,11.5353,179.5676,357.4217,3.796302,0.1332487,0.25694778,351.3943,08/20.0/2024,2000,g 12.0,4.0
# From MPC110497
235P/LINEAR,e,9.6064,203.7268,348.4211,3.499208,0.1505738,0.40651899,282.6402,08/20.0/2024,2000,g 12.0,4.0
# From MPEC 2024-P23
236P/LINEAR,e,16.3557,245.5694,119.4066,3.725102,0.1370872,0.50923345,336.9985,08/20.0/2024,2000,g 14.0,4.0
# From MPEC 2024-L77
237P/LINEAR,e,14.0178,245.3516,25.3710,3.512494,0.1497203,0.43376351,69.3496,08/20.0/2024,2000,g 14.5,2.0
# From MPEC 2024-L77
238P/Read,e,1.2640,51.6386,324.2623,3.166491,0.1749189,0.25100332,141.1015,08/20.0/2024,2000,g 14.5,4.0
# From MPEC 2021-F20
239P/LINEAR,e,11.3080,255.9475,220.3490,4.465098,0.1044618,0.63121175,213.9846,08/20.0/2024,2000,g 17.5,2.0
# From MPEC 2024-O39
240P/NEAT,e,23.5371,74.9164,352.0312,3.861331,0.1298968,0.45034442,296.7511,08/20.0/2024,2000,g 11.0,4.0
# From MPEC 2022-J42
241P/LINEAR,e,21.0949,305.4489,111.5491,4.925817,0.0901544,0.61040315,101.0413,08/20.0/2024,2000,g 13.5,4.0
# From MPEC 2024-Q20
242P/Spahr,e,32.4423,180.3353,244.8651,5.533483,0.0757192,0.28225675,350.5271,08/20.0/2024,2000,g  8.0,4.0
# From MPEC 2022-K19
243P/NEAT,e,7.6439,87.6482,283.6749,3.828129,0.1315904,0.36050521,287.0483,08/20.0/2024,2000,g 12.5,4.0
# From MPEC 2024-L77
244P/Scotti,e,2.2584,354.0100,93.3456,4.901761,0.0908188,0.19985529,58.1150,08/20.0/2024,2000,g  9.0,4.0
# From MPEC 2022-CN4
245P/WISE,e,21.1742,316.8892,316.5373,4.050861,0.1208880,0.45568195,288.8785,08/20.0/2024,2000,g 14.0,4.0
# From MPEC 2024-L77
246P/NEAT,e,17.6773,74.2823,184.8956,4.166502,0.1158902,0.25886902,150.1386,08/20.0/2024,2000,g 10.5,4.0
# From MPEC 2021-F20
247P/LINEAR,e,13.6586,54.0047,47.4562,3.965262,0.1248235,0.62542820,260.5166,08/20.0/2024,2000,g 16.5,2.0
# From MPC 75730
